NORAD_CAT_ID,OBJECT_NAME,OBJECT_TYPE,EPOCH,MEAN_MOTION,ECCENTRICITY,INCLINATION,RA_OF_ASC_NODE,ARG_OF_PERICENTER,MEAN_ANOMALY,BSTAR,MEAN_MOTION_DOT,MEAN_MOTION_DDOT,TLE_LINE0,TLE_LINE1,TLE_LINE2,SEMIMAJOR_AXIS,PERIOD,APOGEE,PERIGEE,DECAYED
53726.0,STARLINK-4697,PAYLOAD,2024-01-10 11:51:31,15.08838254,0.0001345,53.2155,196.8318,96.9746,263.1399,1.7971e-05,-2e-08,0.0,0 STARLINK-4697,1 53726U 22107AC  24010.49411891 -.00000002  00000-0  17971-4 0  9991,2 53726  53.2155 196.8318 0001345  96.9746 263.1399 15.08838254 75274,6917.886,95.438,540.681,538.82,0.0
53726.0,STARLINK-4697,PAYLOAD,2024-01-10 19:48:27,15.08839135,0.0001318,53.2155,195.3446,96.7161,263.3981,2.0657e-05,4.1e-07,0.0,0 STARLINK-4697,1 53726U 22107AC  24010.82531880  .00000041  00000-0  20657-4 0  9996,2 53726  53.2155 195.3446 0001318  96.7161 263.3981 15.08839135 74861,6917.883,95.438,540.66,538.836,0.0
53726.0,STARLINK-4697,PAYLOAD,2024-01-11 11:42:21,15.08809778,0.0001363,53.2153,192.371,94.7802,265.3346,-0.0001996,-3.46e-05,0.0,0 STARLINK-4697,1 53726U 22107AC  24011.48775337 -.00003460  00000-0 -19960-3 0  9990,2 53726  53.2153 192.3710 0001363  94.7802 265.3346 15.08809778 74968,6917.973,95.439,540.781,538.895,0.0
53726.0,STARLINK-4697,PAYLOAD,2024-01-11 19:39:15,15.08838734,0.0001339,53.2154,190.8841,93.2464,266.8682,5.2687e-05,5.51e-06,0.0,0 STARLINK-4697,1 53726U 22107AC  24011.81893156  .00000551  00000-0  52687-4 0  9997,2 53726  53.2154 190.8841 0001339  93.2464 266.8682 15.08838734 75018,6917.884,95.438,540.676,538.823,0.0
53726.0,STARLINK-4697,PAYLOAD,2024-01-11 21:14:38,15.08838849,0.0001342,53.2154,190.5867,96.4727,263.6418,5.3433e-05,5.63e-06,0.0,0 STARLINK-4697,1 53726U 22107AC  24011.88517150  .00000563  00000-0  53433-4 0  9994,2 53726  53.2154 190.5867 0001342  96.4727 263.6418 15.08838849 75484,6917.884,95.438,540.677,538.821,0.0
53726.0,STARLINK-4697,PAYLOAD,2024-01-12 17:54:38,15.08848486,0.0001309,53.2156,186.7217,83.6503,276.4639,0.00017586,2.513e-05,0.0,0 STARLINK-4697,1 53726U 22107AC  24012.74628313  .00002513  00000-0  17586-3 0  9999,2 53726  53.2156 186.7217 0001309  83.6503 276.4639 15.08848486 75154,6917.854,95.437,540.625,538.814,0.0
53726.0,STARLINK-4697,PAYLOAD,2024-01-13 14:34:39,15.08855765,0.0001354,53.216,182.8564,78.5131,281.6013,0.00012615,1.721e-05,0.0,0 STARLINK-4697,1 53726U 22107AC  24013.60740165  .00001721  00000-0  12615-3 0  9993,2 53726  53.2160 182.8564 0001354  78.5131 281.6013 15.08855765 75748,6917.832,95.437,540.634,538.761,0.0
53726.0,STARLINK-4697,PAYLOAD,2024-01-14 14:25:26,15.08847494,0.0001504,53.2168,178.3989,95.6941,264.4223,-3.8725e-05,-9.04e-06,0.0,0 STARLINK-4697,1 53726U 22107AC  24014.60100444 -.00000904  00000-0 -38725-4 0  9999,2 53726  53.2168 178.3989 0001504  95.6941 264.4223 15.08847494 75891,6917.857,95.437,540.763,538.682,0.0
53726.0,STARLINK-4697,PAYLOAD,2024-01-14 16:00:50,15.08846022,0.0001383,53.2148,178.0996,71.3902,288.724,-4.8056e-05,-1.053e-05,0.0,0 STARLINK-4697,1 53726U 22107AC  24014.66724553 -.00001053  00000-0 -48056-4 0  9992,2 53726  53.2148 178.0996 0001383  71.3902 288.7240 15.08846022 75442,6917.862,95.437,540.684,538.77,0.0
53726.0,STARLINK-4697,PAYLOAD,2024-01-14 20:46:59,15.08847658,0.0001357,53.2148,177.2067,77.7172,282.3972,-3.0114e-05,-7.67e-06,0.0,0 STARLINK-4697,1 53726U 22107AC  24014.86596243 -.00000767  00000-0 -30114-4 0  9994,2 53726  53.2148 177.2067 0001357  77.7172 282.3972 15.08847658 75934,6917.857,95.437,540.661,538.783,0.0
53726.0,STARLINK-4697,PAYLOAD,2024-01-15 14:16:13,15.08844114,0.0001342,53.2149,173.935,82.5989,277.5155,-3.3735e-05,-8.25e-06,0.0,0 STARLINK-4697,1 53726U 22107AC  24015.59460140 -.00000825  00000-0 -33735-4 0  9998,2 53726  53.2149 173.9350 0001342  82.5989 277.5155 15.08844114 76043,6917.868,95.437,540.661,538.804,0.0
53726.0,STARLINK-4697,PAYLOAD,2024-01-15 17:26:59,15.08849999,0.0001442,53.2156,173.3384,97.0137,263.1019,-6.0759e-05,-1.255e-05,0.0,0 STARLINK-4697,1 53726U 22107AC  24015.72707750 -.00001255  00000-0 -60759-4 0  9998,2 53726  53.2156 173.3384 0001442  97.0137 263.1019 15.08849999 75606,6917.85,95.437,540.712,538.717,0.0
53726.0,STARLINK-4697,PAYLOAD,2024-01-16 09:20:51,15.08834419,0.0001167,53.2151,170.3656,92.5522,267.5603,9.6171e-06,-1.35e-06,0.0,0 STARLINK-4697,1 53726U 22107AC  24016.38948520 -.00000135  00000-0  96171-5 0  9996,2 53726  53.2151 170.3656 0001167  92.5522 267.5603 15.08834419 75701,6917.897,95.438,540.57,538.955,0.0
53726.0,STARLINK-4697,PAYLOAD,2024-01-16 14:07:00,15.08838675,0.0001235,53.2153,169.4739,93.0011,267.1122,4.4146e-05,4.15e-06,0.0,0 STARLINK-4697,1 53726U 22107AC  24016.58820183  .00000415  00000-0  44146-4 0  9996,2 53726  53.2153 169.4739 0001235  93.0011 267.1122 15.08838675 76193,6917.884,95.438,540.604,538.895,0.0
53726.0,STARLINK-4697,PAYLOAD,2024-01-16 18:53:09,15.08843845,0.0001187,53.2154,168.5817,89.9644,270.1484,8.5784e-05,1.078e-05,0.0,0 STARLINK-4697,1 53726U 22107AC  24016.78691738  .00001078  00000-0  85784-4 0  9999,2 53726  53.2154 168.5817 0001187  89.9644 270.1484 15.08843845 75765,6917.869,95.437,540.555,538.912,0.0
53726.0,STARLINK-4697,PAYLOAD,2024-01-17 13:57:48,15.08834834,0.000134,53.2167,165.0128,99.5429,260.5714,-4.282e-05,-9.69e-06,0.0,0 STARLINK-4697,1 53726U 22107AC  24017.58181007 -.00000969  00000-0 -42820-4 0  9995,2 53726  53.2167 165.0128 0001340  99.5429 260.5714 15.08834834 76347,6917.896,95.438,540.688,538.834,0.0
53726.0,STARLINK-4697,PAYLOAD,2024-01-17 17:08:34,15.08834903,0.000155,53.2168,164.4181,64.2092,295.906,-3.3394e-05,-8.19e-06,0.0,0 STARLINK-4697,1 53726U 22107AC  24017.71429217 -.00000819  00000-0 -33394-4 0  9998,2 53726  53.2168 164.4181 0001550  64.2092 295.9060 15.08834903 75902,6917.896,95.438,540.833,538.689,0.0
53726.0,STARLINK-4697,PAYLOAD,2024-01-18 13:48:35,15.08841758,0.0001353,53.2167,160.5554,76.3123,283.8019,7.035e-05,8.32e-06,0.0,0 STARLINK-4697,1 53726U 22107AC  24018.57540663  .00000832  00000-0  70350-4 0  9998,2 53726  53.2167 160.5554 0001353  76.3123 283.8019 15.08841758 76493,6917.875,95.437,540.676,538.804,0.0
53726.0,STARLINK-4697,PAYLOAD,2024-01-18 16:59:20,15.08867873,0.0001299,53.2171,159.962,50.9923,309.1185,-0.00020041,-3.478e-05,0.0,0 STARLINK-4697,1 53726U 22107AC  24018.70787717 -.00003478  00000-0 -20041-3 0  9998,2 53726  53.2171 159.9620 0001299  50.9923 309.1185 15.08867873 76053,6917.795,95.436,540.559,538.762,0.0
53726.0,STARLINK-4697,PAYLOAD,2024-01-19 08:53:12,15.08837767,0.0001827,53.2174,156.9901,61.377,298.7406,0.00018522,2.661e-05,0.0,0 STARLINK-4697,1 53726U 22107AC  24019.37028691  .00002661  00000-0  18522-3 0  9993,2 53726  53.2174 156.9901 0001827  61.3770 298.7406 15.08837767 76157,6917.887,95.438,541.016,538.488,0.0
53726.0,STARLINK-4697,PAYLOAD,2024-01-19 13:39:22,15.08841961,0.0001722,53.2175,156.0967,72.0789,288.0391,0.00011292,1.51e-05,0.0,0 STARLINK-4697,1 53726U 22107AC  24019.56900644  .00001510  00000-0  11292-3 0  9990,2 53726  53.2175 156.0967 0001722  72.0789 288.0391 15.08841961 76644,6917.874,95.437,540.931,538.548,0.0
53726.0,STARLINK-4697,PAYLOAD,2024-01-19 15:14:45,15.08842683,0.0001714,53.2172,155.7992,71.9473,288.1706,0.00012651,1.726e-05,0.0,0 STARLINK-4697,1 53726U 22107AC  24019.63524557  .00001726  00000-0  12651-3 0  9992,2 53726  53.2172 155.7992 0001714  71.9473 288.1706 15.08842683 76658,6917.872,95.437,540.923,538.551,0.0
53726.0,STARLINK-4697,PAYLOAD,2024-01-20 11:54:46,15.08841243,0.0001598,53.2175,151.9325,93.9545,266.163,-1.2065e-05,-4.8e-06,0.0,0 STARLINK-4697,1 53726U 22107AC  24020.49636862 -.00000480  00000-0 -12065-4 0  9999,2 53726  53.2175 151.9325 0001598  93.9545 266.1630 15.08841243 76320,6917.877,95.437,540.847,538.636,0.0
53726.0,STARLINK-4697,PAYLOAD,2024-01-20 15:05:32,15.08841965,0.0001526,53.2176,151.3392,86.6126,273.5041,-5.1489e-06,-3.7e-06,0.0,0 STARLINK-4697,1 53726U 22107AC  24020.62884844 -.00000370  00000-0 -51489-5 0  9991,2 53726  53.2176 151.3392 0001526  86.6126 273.5041 15.08841965 76806,6917.874,95.437,540.795,538.684,0.0
53726.0,STARLINK-4697,PAYLOAD,2024-01-21 13:20:56,15.08844009,0.0001132,53.2158,147.1736,73.6694,286.4423,1.292e-05,-8.2e-07,0.0,0 STARLINK-4697,1 53726U 22107AC  24021.55620539 -.00000082  00000-0  12920-4 0  9998,2 53726  53.2158 147.1736 0001132  73.6694 286.4423 15.08844009 76483,6917.868,95.437,540.516,538.95,0.0
53726.0,STARLINK-4697,PAYLOAD,2024-01-21 14:56:19,15.08847084,0.0001135,53.216,146.8753,81.1607,278.9513,2.5179e-05,1.13e-06,0.0,0 STARLINK-4697,1 53726U 22107AC  24021.62244274  .00000113  00000-0  25179-4 0  9998,2 53726  53.2160 146.8753 0001135  81.1607 278.9513 15.08847084 76956,6917.859,95.437,540.509,538.939,0.0
53726.0,STARLINK-4697,PAYLOAD,2024-01-22 11:36:20,15.08835119,0.0001229,53.217,143.0095,99.8478,260.2653,3.8931e-05,3.32e-06,0.0,0 STARLINK-4697,1 53726U 22107AC  24022.48357074  .00000332  00000-0  38931-4 0  9999,2 53726  53.2170 143.0095 0001229  99.8478 260.2653 15.08835119 76620,6917.895,95.438,540.611,538.91,0.0
53726.0,STARLINK-4697,PAYLOAD,2024-01-22 14:47:06,15.08837445,0.0001092,53.2157,142.415,81.6517,278.4599,8.0337e-06,-1.6e-06,0.0,0 STARLINK-4697,1 53726U 22107AC  24022.61605098 -.00000160  00000-0  80337-5 0  9994,2 53726  53.2157 142.4150 0001092  81.6517 278.4599 15.08837445 77109,6917.888,95.438,540.509,538.998,0.0
53726.0,STARLINK-4697,PAYLOAD,2024-01-23 14:37:53,15.08846733,0.000117,53.2162,137.9534,85.6197,274.4929,6.885e-05,8.08e-06,0.0,0 STARLINK-4697,1 53726U 22107AC  24023.60964525  .00000808  00000-0  68850-4 0  9990,2 53726  53.2162 137.9534 0001170  85.6197 274.4929 15.08846733 76792,6917.86,95.437,540.534,538.915,0.0
53726.0,STARLINK-4697,PAYLOAD,2024-01-24 11:17:55,15.08832087,0.0001344,53.2168,134.0868,97.0819,263.0326,1.989e-05,2.9e-07,0.0,0 STARLINK-4697,1 53726U 22107AC  24024.47077907  .00000029  00000-0  19890-4 0  9990,2 53726  53.2168 134.0868 0001344  97.0819 263.0326 15.08832087 76924,6917.905,95.438,540.699,538.84,0.0
